     2.11           N: GPS NAV DATA                         RINEX VERSION / TYPE
teqc  2019Feb25                         20221121 12:23:33UTCPGM / RUN BY / DATE
OSX ker:10.11.6|Core i5|gcc 4.3 -m64|OSX ker:10.10+|=+      COMMENT
    6.5193D-09  2.2352D-08 -5.9605D-08 -1.1921D-07          ION ALPHA
    8.6016D+04  9.8304D+04 -6.5536D+04 -5.2429D+05          ION BETA
    9.313225746155D-10 0.000000000000D+00   319488     1533 DELTA-UTC: A0,A1,T,W
                                                            END OF HEADER
31 09  5 26  0  0  0.0-6.104074418545D-05-7.958078640513D-13 0.000000000000D+00
    4.600000000000D+01-1.517187500000D+02 4.306607958936D-09-1.685091885378D+00
   -7.744878530502D-06 7.056953501888D-03 6.090849637985D-06 5.153722335815D+03
    1.728000000000D+05-2.011656761169D-07 2.744586041791D+00 1.117587089539D-07
    9.730178108289D-01 2.705937500000D+02-1.139683892432D+00-7.991761460372D-09
   -1.767930784271D-10 1.000000000000D+00 1.533000000000D+03 0.000000000000D+00
    2.000000000000D+00 0.000000000000D+00-1.303851604462D-08 4.600000000000D+01
    1.656180000000D+05 4.000000000000D+00
16 09  5 26  0  0  0.0 4.782481119037D-05-3.296918293927D-12 0.000000000000D+00
    9.700000000000D+01-4.050000000000D+01 4.294464595974D-09 2.333109572681D+00
   -1.842156052589D-06 5.360355600715D-03 1.158751547337D-05 5.153554012299D+03
    1.728000000000D+05 1.862645149231D-09-2.468039140194D+00 1.154839992523D-07
    9.685106977409D-01 1.609687500000D+02-3.555501466850D-01-7.656033190227D-09
    5.050210361533D-10 1.000000000000D+00 1.533000000000D+03 0.000000000000D+00
    2.000000000000D+00 0.000000000000D+00-9.778887033463D-09 9.700000000000D+01
    1.656180000000D+05 4.000000000000D+00
23 09  5 26  0  0  0.0 3.901240415871D-04 1.136868377216D-13 0.000000000000D+00
    1.010000000000D+02 3.703125000000D+01 4.598048670040D-09 6.701254384429D-02
    2.013519406319D-06 6.108682951890D-03-1.175329089165D-06 5.153609121323D+03
    1.728000000000D+05 5.029141902924D-08 1.704513445358D+00-9.126961231232D-08
    9.701226740062D-01 4.048750000000D+02 2.884262004587D+00-8.587857718745D-09
    2.467959943295D-10 1.000000000000D+00 1.533000000000D+03 0.000000000000D+00
    2.000000000000D+00 0.000000000000D+00-2.002343535423D-08 1.010000000000D+02
    1.656180000000D+05 4.000000000000D+00
29 09  5 26  0  0  0.0 2.370681613684D-05 3.865352482535D-12 0.000000000000D+00
    9.600000000000D+01 6.750000000000D+00 4.925562312298D-09-2.472019882191D+00
    2.756714820862D-07 3.438946325332D-03 5.401670932770D-06 5.153666675568D+03
    1.728000000000D+05-1.862645149231D-08-1.417352057831D+00 5.215406417847D-08
    9.594353610882D-01 2.741875000000D+02-1.322558664551D+00-8.034620388475D-09
    8.678932940965D-11 1.000000000000D+00 1.533000000000D+03 0.000000000000D+00
    2.000000000000D+00 0.000000000000D+00-8.847564458847D-09 9.600000000000D+01
    1.656180000000D+05 4.000000000000D+00
24 09  5 26  0  0  0.0 1.917304471135D-04 2.955857780762D-12 0.000000000000D+00
    6.700000000000D+01 2.812500000000D-01 4.489115561111D-09 2.441161462734D+00
    1.043081283569D-07 6.696102209389D-03 1.001544296741D-05 5.153674018860D+03
    1.728000000000D+05-9.126961231232D-08-3.448799937961D-01-1.862645149231D-09
    9.509536414819D-01 1.829375000000D+02-6.493052161342D-01-7.698177802862D-09
   -8.232485773220D-10 1.000000000000D+00 1.533000000000D+03 0.000000000000D+00
    2.800000000000D+00 0.000000000000D+00-1.396983861923D-09 6.700000000000D+01
    1.656180000000D+05 4.000000000000D+00
 2 09  5 26  0  0  0.0 1.548174768686D-04 6.821210263297D-13 0.000000000000D+00
    9.700000000000D+01-1.156250000000D+00 5.038424156304D-09 1.945599663293D-01
   -2.477318048477D-07 9.065723745152D-03 9.125098586082D-06 5.153651708603D+03
    1.728000000000D+05 1.564621925354D-07-4.084953682946D-01-1.005828380585D-07
    9.415232736292D-01 1.957500000000D+02 2.822845719266D+00-8.219985252523D-09
   -7.782467028133D-10 1.000000000000D+00 1.533000000000D+03 0.000000000000D+00
    2.000000000000D+00 0.000000000000D+00-1.722946763039D-08 9.700000000000D+01
    1.656180000000D+05 4.000000000000D+00
25 09  5 26  0  0  0.0 4.308177158237D-04 1.898570189951D-11 0.000000000000D+00
    6.700000000000D+01-1.687812500000D+02 4.305893643468D-09 2.936065860437D+00
   -8.702278137207D-06 1.142201048788D-02 4.604458808899D-06 5.153658740997D+03
    1.728000000000D+05 2.328306436539D-07 2.652243046534D+00 1.695007085800D-07
    9.698404566279D-01 2.923750000000D+02-1.207062527136D+00-7.998547457321D-09
   -2.432244169875D-10 1.000000000000D+00 1.533000000000D+03 0.000000000000D+00
    2.800000000000D+00 0.000000000000D+00-7.450580596924D-09 6.700000000000D+01
    1.658760000000D+05 4.000000000000D+00
 6 09  5 26  0  0  0.0 1.370902173221D-04 1.466560206609D-11 0.000000000000D+00
    8.100000000000D+01 9.968750000000D+00 5.665235979818D-09 2.313521538475D+00
    5.848705768585D-07 5.999306100421D-03 4.531815648079D-06 5.153691904068D+03
    1.728000000000D+05 8.009374141693D-08-1.488803377471D+00-7.823109626770D-08
    9.332728779443D-01 2.701250000000D+02-1.362862603304D+00-8.420350741407D-09
    3.142988060926D-11 1.000000000000D+00 1.533000000000D+03 0.000000000000D+00
    2.000000000000D+00 0.000000000000D+00-4.656612873077D-09 8.100000000000D+01
    1.671960000000D+05 4.000000000000D+00
21 09  5 26  0  0  0.0 1.198379322886D-05-2.046363078989D-12 0.000000000000D+00
    4.400000000000D+01-7.000000000000D+00 4.884489172866D-09-2.480069814211D+00
   -5.438923835754D-07 1.528745575342D-02 1.002475619316D-05 5.153613151550D+03
    1.728000000000D+05-1.303851604462D-08-3.769636846791D-01-2.011656761169D-07
    9.342924630884D-01 1.712812500000D+02-2.602410643958D+00-7.893543083468D-09
   -5.860958418158D-10 1.000000000000D+00 1.533000000000D+03 0.000000000000D+00
    2.000000000000D+00 0.000000000000D+00-1.210719347000D-08 4.400000000000D+01
    1.673160000000D+05 4.000000000000D+00
10 09  5 26  0  0  0.0-1.654913648963D-05-5.684341886081D-13 0.000000000000D+00
    8.300000000000D+01 1.543125000000D+02 4.058026175936D-09 1.123849071111D+00
    8.098781108856D-06 8.589775534347D-03 9.980052709579D-06 5.153618726730D+03
    1.728000000000D+05-1.490116119385D-07 6.754104201836D-01 1.862645149231D-08
    9.586150941436D-01 1.848125000000D+02 6.270791368659D-01-7.907472235101D-09
   -3.000124967247D-11 1.000000000000D+00 1.533000000000D+03 0.000000000000D+00
    2.800000000000D+00 0.000000000000D+00-2.793967723846D-09 8.300000000000D+01
    1.680060000000D+05 4.000000000000D+00
 7 09  5 26  0  0  0.0 1.823529601097D-05-6.821210263297D-13 0.000000000000D+00
    6.700000000000D+01-1.680625000000D+02 4.373396455231D-09-1.507702661068D+00
   -8.823350071907D-06 2.570477547124D-03 5.846843123436D-06 5.153675977707D+03
    1.728000000000D+05 4.470348358154D-08 2.746712684340D+00-2.980232238770D-08
    9.676441996592D-01 2.711875000000D+02 2.876823867833D+00-8.130338661240D-09
   -1.707213969457D-10 1.000000000000D+00 1.533000000000D+03 0.000000000000D+00
    2.000000000000D+00 0.000000000000D+00-1.071020960808D-08 6.700000000000D+01
    1.687860000000D+05 4.000000000000D+00
 3 09  5 26  0  0  0.0 3.978949971497D-04 5.115907697473D-12 0.000000000000D+00
    6.300000000000D+01 1.246875000000D+01 5.947747747567D-09-1.427536571657D-01
    7.934868335724D-07 1.184659078717D-02 4.969537258148D-06 5.153618167877D+03
    1.728000000000D+05-3.539025783539D-08-1.556415234965D+00 1.303851604462D-07
    9.257980438903D-01 2.614062500000D+02 8.999629793676D-01-8.828939189327D-09
    1.414344627416D-10 1.000000000000D+00 1.533000000000D+03 0.000000000000D+00
    2.800000000000D+00 0.000000000000D+00-4.190951585770D-09 6.300000000000D+01
    1.688760000000D+05 4.000000000000D+00
19 09  5 26  0  0  0.0 2.458179369569D-05-1.136868377216D-12 0.000000000000D+00
    6.600000000000D+01-2.531250000000D+00 5.124499170245D-09 6.114621455099D-01
   -3.408640623093D-07 5.609997664578D-03 4.868954420090D-06 5.153593029022D+03
    1.728000000000D+05 7.078051567078D-08-1.369467012804D+00 0.000000000000D+00
    9.569343080635D-01 2.794062500000D+02-3.634864787280D-01-8.229985669080D-09
   -1.171477368163D-10 1.000000000000D+00 1.533000000000D+03 0.000000000000D+00
    2.000000000000D+00 0.000000000000D+00-1.443549990654D-08 6.600000000000D+01
    1.722360000000D+05 4.000000000000D+00
